STARLINK-3872           
1 52453U 22049C   26193.43463035  .00001074  00000+0  85587-4 0  9993
2 52453  53.1586 228.8687 0001091  89.0546 271.0570 15.08838817230942
STARLINK-3888           
1 52454U 22049D   26193.57078243 -.00001128  00000+0 -52799-4 0  9993
2 52454  53.1595 228.2561 0001131  83.4735 276.6385 15.08826391230962
STARLINK-3890           
1 52455U 22049E   26194.09430043  .00000057  00000+0  21699-4 0  9995
2 52455  53.1557 225.9019 0001135  77.6352 282.4766 15.08833918231048
STARLINK-3896           
1 52456U 22049F   26193.49447001  .00001638  00000+0  12099-3 0  9990
2 52456  53.1567 228.6013 0001301  80.0192 280.0946 15.08827469230956
STARLINK-3899           
1 52457U 22049G   26194.08597961 -.00000211  00000+0  48468-5 0  9996
2 52457  53.1603 225.9330 0001091  77.3647 282.7466 15.08833611231043
STARLINK-3898           
1 52458U 22049H   26194.08326823  .00000577  00000+0  54352-4 0  9996
2 52458  53.1599 225.9541 0000846  82.1299 277.9789 15.08839218231049
STARLINK-3856           
1 52459U 22049J   26193.47234273 -.00001513  00000+0 -76931-4 0  9996
2 52459  53.1572 218.7035 0002195  61.4553 298.6659 15.08839542231081
STARLINK-3900           
1 52461U 22049L   26193.53581913 -.00000238  00000+0  31399-5 0  9994
2 52461  53.1582 208.4123 0001543  94.8204 265.2964 15.08833015231233
STARLINK-3903           
1 52462U 22049M   26193.06851480  .00001032  00000+0  82918-4 0  9996
2 52462  53.1582 220.5254 0001105  80.6368 279.4748 15.08836907231029
STARLINK-3885           
1 52463U 22049N   26193.99582481  .00000114  00000+0  25234-4 0  9999
2 52463  53.1588 206.3453 0000896  75.8426 284.2665 15.08840135231307
STARLINK-3904           
1 52464U 22049P   26193.46867477  .00001087  00000+0  86360-4 0  9990
2 52464  53.1593 218.7175 0000945  87.0096 273.1004 15.08840138231087
STARLINK-3863           
1 52465U 22049Q   26193.06479794  .00000764  00000+0  66111-4 0  9991
2 52465  53.1582 210.5303 0001103  83.2977 276.8140 15.08835011231166
STARLINK-3873           
1 52467U 22049S   26193.39506416 -.00000033  00000+0  16037-4 0  9993
2 52467  53.1585 219.0474 0000938  77.4758 282.6338 15.08833057231073
STARLINK-3864           
1 52468U 22049T   26194.30770729 -.00000366  00000+0 -48891-5 0  9990
2 52468  53.1589 214.9437 0001081  69.6948 290.4159 15.08832558231214
STARLINK-3828           
1 52469U 22049U   26194.31506820  .00000562  00000+0  53398-4 0  9994
2 52469  53.1593 214.9192 0000773  68.5527 291.5547 15.08840060231216
STARLINK-3859           
1 52470U 22049V   26194.30034162 -.00000602  00000+0 -19724-4 0  9992
2 52470  53.1576 214.9751 0001134  82.4045 277.7076 15.08837972231213
STARLINK-3862           
1 52471U 22049W   26193.57395381  .00000920  00000+0  41386-4 0  9994
2 52471  53.1656 215.3492 0000522 164.7999 195.3018 15.31699893231149
STARLINK-3881           
1 52472U 22049X   26193.43554529  .00000357  00000+0  40509-4 0  9991
2 52472  53.1584 218.8628 0001140  75.3100 284.8018 15.08835746231087
STARLINK-3879           
1 52473U 22049Y   26194.30402714 -.00000191  00000+0  60792-5 0  9991
2 52473  53.1588 214.9593 0001220  78.2898 281.8231 15.08828050231214
STARLINK-3882           
1 52475U 22049AA  26194.31877488  .00000340  00000+0  39428-4 0  9994
2 52475  53.1600 215.1171 0000923  62.4624 297.6462 15.08831018231216
STARLINK-3835           
1 52476U 22049AB  26194.20289408 -.00000522  00000+0 -14673-4 0  9991
2 52476  53.1586 205.6551 0001382  79.2307 280.8840 15.08835897232573
STARLINK-3860           
1 52477U 22049AC  26194.05470064  .00000301  00000+0  37024-4 0  9993
2 52477  53.1588 206.0811 0000989  84.1764 275.9340 15.08837710232558
STARLINK-3825           
1 52478U 22049AD  26194.09058017 -.00000348  00000+0 -37425-5 0  9997
2 52478  53.1615 215.9195 0001263  87.8665 272.2471 15.08832955232427
STARLINK-3878           
1 52479U 22049AE  26194.30494194  .00000027  00000+0  19794-4 0  9992
2 52479  53.1598 204.9590 0001143  81.2295 278.8826 15.08836435232590
STARLINK-3839           
1 52480U 22049AF  26193.09330733 -.00000505  00000+0 -13679-4 0  9996
2 52480  53.1576 220.4020 0000805  91.0829 269.0254 15.08829635231034
STARLINK-3813           
1 52482U 22049AH  26193.03904541  .00000582  00000+0  54676-4 0  9991
2 52482  53.1585 210.6473 0001080  83.8924 276.2191 15.08830114231168
STARLINK-3875           
1 52483U 22049AJ  26194.30862508  .00000306  00000+0  37313-4 0  9992
2 52483  53.1594 204.9419 0001279  67.7846 292.3281 15.08838747232596
STARLINK-3887           
1 52484U 22049AK  26194.01699243  .00001036  00000+0  83149-4 0  9994
2 52484  53.1585 216.2495 0001051  73.0978 287.0128 15.08840717231175
STARLINK-3913           
1 52485U 22049AL  26194.30127613  .00000684  00000+0  61055-4 0  9994
2 52485  53.1592 204.9746 0001321  71.4821 288.6314 15.08837442231351
STARLINK-3918           
1 52486U 22049AM  26193.08226169  .00000856  00000+0  71884-4 0  9997
2 52486  53.1590 220.4525 0001127  82.6250 277.4870 15.08843424231037
