OBJECT_NAME,OBJECT_ID,EPOCH,MEAN_MOTION,ECCENTRICITY,INCLINATION,RA_OF_ASC_NODE,ARG_OF_PERICENTER,MEAN_ANOMALY,EPHEMERIS_TYPE,CLASSIFICATION_TYPE,NORAD_CAT_ID,ELEMENT_SET_NO,REV_AT_EPOCH,BSTAR,MEAN_MOTION_DOT,MEAN_MOTION_DDOT
STARLINK-3872,2022-049C,2026-07-12T10:25:52.062240,15.08838817,.00010919,53.1586,228.8687,89.0546,271.0570,0,U,52453,999,23094,.85587091E-4,.1074E-4,0
STARLINK-3888,2022-049D,2026-07-12T13:41:55.601952,15.08826391,.0001131,53.1595,228.2561,83.4735,276.6385,0,U,52454,999,23096,-.52799E-4,-.1128E-4,0
STARLINK-3890,2022-049E,2026-07-13T02:15:47.557152,15.08833918,.00011359,53.1557,225.9019,77.6352,282.4766,0,U,52455,999,23104,.21699151E-4,.57E-6,0
STARLINK-3896,2022-049F,2026-07-12T11:52:02.208864,15.08827469,.00013011,53.1567,228.6013,80.0192,280.0946,0,U,52456,999,23095,.1209914E-3,.1638E-4,0
STARLINK-3899,2022-049G,2026-07-13T02:03:48.638304,15.08833611,.00010917,53.1603,225.9330,77.3647,282.7466,0,U,52457,999,23104,.4846761E-5,-.211E-5,0
STARLINK-3898,2022-049H,2026-07-13T01:59:54.375072,15.08839218,.00008464,53.1599,225.9541,82.1299,277.9789,0,U,52458,999,23104,.5435168E-4,.577E-5,0
STARLINK-3856,2022-049J,2026-07-12T11:20:10.411872,15.08839542,.00021958,53.1572,218.7035,61.4553,298.6659,0,U,52459,999,23108,-.76930873E-4,-.1513E-4,0
STARLINK-3900,2022-049L,2026-07-12T12:51:34.772832,15.08833015,.0001543,53.1582,208.4123,94.8204,265.2964,0,U,52461,999,23123,.31399E-5,-.238E-5,0
STARLINK-3903,2022-049M,2026-07-12T01:38:39.678720,15.08836907,.00011053,53.1582,220.5254,80.6368,279.4748,0,U,52462,999,23102,.8291841E-4,.1032E-4,0
STARLINK-3885,2022-049N,2026-07-12T23:53:59.263584,15.08840135,.00008963,53.1588,206.3453,75.8426,284.2665,0,U,52463,999,23130,.25234281E-4,.114E-5,0
STARLINK-3904,2022-049P,2026-07-12T11:14:53.500128,15.08840138,.00009455,53.1593,218.7175,87.0096,273.1004,0,U,52464,999,23108,.86359679E-4,.1087E-4,0
STARLINK-3863,2022-049Q,2026-07-12T01:33:18.542016,15.08835011,.00011031,53.1582,210.5303,83.2977,276.8140,0,U,52465,999,23116,.66111054E-4,.764E-5,0
STARLINK-3873,2022-049S,2026-07-12T09:28:53.543424,15.08833057,.00009384,53.1585,219.0474,77.4758,282.6338,0,U,52467,999,23107,.16037388E-4,-.33E-6,0
STARLINK-3864,2022-049T,2026-07-13T07:23:05.909856,15.08832558,.00010811,53.1589,214.9437,69.6948,290.4159,0,U,52468,999,23121,-.4889106E-5,-.366E-5,0
STARLINK-3828,2022-049U,2026-07-13T07:33:41.892480,15.08840060,.00007737,53.1593,214.9192,68.5527,291.5547,0,U,52469,999,23121,.53398299E-4,.562E-5,0
STARLINK-3859,2022-049V,2026-07-13T07:12:29.515968,15.08837972,.00011341,53.1576,214.9751,82.4045,277.7076,0,U,52470,999,23121,-.19724224E-4,-.602E-5,0
STARLINK-3862,2022-049W,2026-07-12T13:46:29.609184,15.31699893,.0000522,53.1656,215.3492,164.7999,195.3018,0,U,52471,999,23114,.41386E-4,.92E-5,0
STARLINK-3881,2022-049X,2026-07-12T10:27:11.113056,15.08835746,.00011404,53.1584,218.8628,75.3100,284.8018,0,U,52472,999,23108,.40509244E-4,.357E-5,0
STARLINK-3879,2022-049Y,2026-07-13T07:17:47.944896,15.08828050,.00012206,53.1588,214.9593,78.2898,281.8231,0,U,52473,999,23121,.6079211E-5,-.191E-5,0
STARLINK-3882,2022-049AA,2026-07-13T07:39:02.149632,15.08831018,.00009233,53.1600,215.1171,62.4624,297.6462,0,U,52475,999,23121,.39427962E-4,.34E-5,0
STARLINK-3835,2022-049AB,2026-07-13T04:52:10.048512,15.08835897,.00013821,53.1586,205.6551,79.2307,280.8840,0,U,52476,999,23257,-.14672701E-4,-.522E-5,0
STARLINK-3860,2022-049AC,2026-07-13T01:18:46.135296,15.08837710,.00009899,53.1588,206.0811,84.1764,275.9340,0,U,52477,999,23255,.37024116E-4,.301E-5,0
STARLINK-3825,2022-049AD,2026-07-13T02:10:26.126688,15.08832955,.0001263,53.1615,215.9195,87.8665,272.2471,0,U,52478,999,23242,-.3742476E-5,-.348E-5,0
STARLINK-3878,2022-049AE,2026-07-13T07:19:06.983616,15.08836435,.00011433,53.1598,204.9590,81.2295,278.8826,0,U,52479,999,23259,.19794381E-4,.27E-6,0
STARLINK-3839,2022-049AF,2026-07-12T02:14:21.753312,15.08829635,.00008054,53.1576,220.4020,91.0829,269.0254,0,U,52480,999,23103,-.13678719E-4,-.505E-5,0
STARLINK-3813,2022-049AH,2026-07-12T00:56:13.523424,15.08830114,.00010804,53.1585,210.6473,83.8924,276.2191,0,U,52482,999,23116,.54676094E-4,.582E-5,0
STARLINK-3875,2022-049AJ,2026-07-13T07:24:25.206912,15.08838747,.0001279,53.1594,204.9419,67.7846,292.3281,0,U,52483,999,23259,.37312857E-4,.306E-5,0
STARLINK-3887,2022-049AK,2026-07-13T00:24:28.145952,15.08840717,.00010517,53.1585,216.2495,73.0978,287.0128,0,U,52484,999,23117,.83149178E-4,.1036E-4,0
STARLINK-3913,2022-049AL,2026-07-13T07:13:50.257632,15.08837442,.00013219,53.1592,204.9746,71.4821,288.6314,0,U,52485,999,23135,.61055031E-4,.684E-5,0
STARLINK-3918,2022-049AM,2026-07-12T01:58:27.410016,15.08843424,.00011278,53.1590,220.4525,82.6250,277.4870,0,U,52486,999,23103,.71884098E-4,.856E-5,0
